[{"OBJECT_NAME":"LEMUR-2-AMANDA-SVANTE","OBJECT_ID":"2021-034B","EPOCH":"2026-03-09T18:37:58.823328","MEAN_MOTION":15.28469003,"ECCENTRICITY":0.00027027,"INCLINATION":97.5829,"RA_OF_ASC_NODE":144.8625,"ARG_OF_PERICENTER":205.4721,"MEAN_ANOMALY":154.6385,"EPHEMERIS_TYPE":0,"CLASSIFICATION_TYPE":"U","NORAD_CAT_ID":48269,"ELEMENT_SET_NO":999,"REV_AT_EPOCH":26584,"BSTAR":0.0011134246,"MEAN_MOTION_DOT":0.00030872,"MEAN_MOTION_DDOT":0},{"OBJECT_NAME":"STARLINK-31047","OBJECT_ID":"2024-011U","EPOCH":"2026-03-09T01:01:16.690656","MEAN_MOTION":15.30194233,"ECCENTRICITY":8.666e-5,"INCLINATION":53.1608,"RA_OF_ASC_NODE":1.1321,"ARG_OF_PERICENTER":94.8099,"MEAN_ANOMALY":265.3001,"EPHEMERIS_TYPE":0,"CLASSIFICATION_TYPE":"U","NORAD_CAT_ID":58783,"ELEMENT_SET_NO":999,"REV_AT_EPOCH":12038,"BSTAR":2.9031072e-5,"MEAN_MOTION_DOT":5.01e-6,"MEAN_MOTION_DDOT":0}]
